QIANFAN-41              
1 62242U 24232F   25202.63181498  .00000089  00000+0  11904-3 0  9994
2 62242  88.9935  55.7740 0012086 245.3827 114.6065 13.50958547 79798
QIANFAN-42              
1 62243U 24232G   25202.89980628  .00000221  00000+0  89357-4 0  9991
2 62243  88.9932  53.8198 0014416 186.1773 173.9244 14.24330411 80899
QIANFAN-43              
1 62244U 24232H   25202.84978577  .00000084  00000+0  11122-3 0  9998
2 62244  88.9940  55.8108 0013561 250.9232 109.0451 13.50951326 48438
QIANFAN-44              
1 62245U 24232J   25202.83750772  .00000078  00000+0  10252-3 0  9999
2 62245  88.9938  55.6249 0011806 247.2339 112.7565 13.50946883 79902
QIANFAN-45              
1 62246U 24232K   25202.87869290  .00000088  00000+0  11829-3 0  9992
2 62246  88.9941  55.7623 0012463 246.8868 113.0970 13.50957219 79837
QIANFAN-46              
1 62247U 24232L   25202.60714009  .00000074  00000+0  95982-4 0  9999
2 62247  88.9938  55.8649 0012478 254.1460 105.8316 13.50959331 79750
QIANFAN-47              
1 62248U 24232M   25202.83337359  .00000073  00000+0  93940-4 0  9995
2 62248  88.9933  55.7806 0012911 252.4082 107.5659 13.50958872 79818
QIANFAN-48              
1 62249U 24232N   25202.57417085  .00000083  00000+0  11034-3 0  9996
2 62249  88.9937  55.8031 0015161 256.5085 103.4376 13.50952474 79781
